Object : Patroclus
Mean anomaly = 325.19533
Argument of perihelion = 307.85958
Long. of ascending node = 44.36592
Inclination = 22.05270
Eccentricity = 0.139951
Semimajor axis = 5.218499
